{"fetched_at":"2026-03-29T16:36:15Z","count":15609,"tles":[{"name":"STARLINK-32028","line1":"1 60095U 24117E   26087.87577868  .00000208  00000+0  19140-4 0  9992","line2":"2 60095  53.1600 308.0285 0000923  94.9778 265.1328 15.30192552 99829","category":"Starlink"}]}