{
  "norad_id": 60095,
  "name": "STARLINK-32028",
  "history": [
    {
      "epoch": "2026-03-28T21:01:07.277952",
      "apogee_km": 475.8700799448625,
      "perigee_km": 474.60453584516745,
      "latitude_deg": 43.3336299769731,
      "longitude_deg": -86.42524671996944,
      "semi_major_axis_km": 6853.374307895015,
      "eccentricity": 9.233e-05,
      "inclination_deg": 53.16,
      "raan_deg": 308.0285,
      "arg_perigee_deg": 94.9778,
      "mean_anomaly_deg": 265.1328,
      "mean_motion_rev_day": 15.30192552
    }
  ]
}